PERSEUS-M1              
1 40039U 14033AF  26129.36468797  .00001156  00000+0  10975-3 0  9994
2 40039  97.9623  72.8693 0012955  68.9578 291.3026 14.95500089644833
POLYITAN-1              
1 40042U 14033AJ  26129.52960976  .00012942  00000+0  42212-3 0  9996
2 40042  98.0980 152.1738 0005366 282.4820  77.5819 15.31941104647675
TIGRISAT                
1 40043U 14033AK  26129.37333003  .00001920  00000+0  22673-3 0  9998
2 40043  97.7786 280.2898 0048997 200.4241 159.5016 14.84997450639864
AEROCUBE 6A             
1 40045U 14033AM  26129.41162832  .00006012  00000+0  50997-3 0  9992
2 40045  97.7208 296.7927 0040112 143.5697 216.8267 14.97675296640810
AEROCUBE 6B             
1 40046U 14033AN  26129.45124795  .00005226  00000+0  42879-3 0  9999
2 40046  97.7179 296.5458 0037663 136.7298 223.6894 14.99102141640956
CANX-4                  
1 40055U 14034C   26129.37684689  .00000681  00000+0  94770-4 0  9992
2 40055  98.3174   3.2570 0013726 131.8729 228.3656 14.81192728638782
CANX-5                  
1 40056U 14034D   26129.37572764  .00000680  00000+0  94571-4 0  9991
2 40056  98.3175   3.2970 0013718 132.0868 228.1512 14.81209762629591
UKUBE-1                 
1 40074U 14037F   26129.48498253  .00006243  00000+0  35857-3 0  9998
2 40074  98.4248 128.7128 0000610  34.8391 325.2877 15.12937450642706
BRITE-PL2 (HEWELIUSZ)   
1 40119U 14049B   26129.27282956  .00001524  00000+0  14672-3 0  9998
2 40119  97.9054 240.9869 0012857 235.3242 124.6766 14.94450146635636
AEROCUBE 5C             
1 40965U 15058B   26129.41131418  .00002478  00000+0  22682-3 0  9999
2 40965  64.7688  23.1989 0129721  78.5164 283.0482 14.91233329359876
AEROCUBE 7              
1 40966U 15058C   26129.38361517  .00003591  00000+0  29486-3 0  9997
2 40966  64.7639   6.3285 0119538  77.2382 284.2060 14.95423752360151
FOX-1A (AO-85)          
1 40967U 15058D   26129.17786542  .00002638  00000+0  24403-3 0  9999
2 40967  64.7764  40.1896 0128847  71.8916 289.6180 14.90739330107755
SINOD-D 1               
1 40968U 15058E   26129.43305647  .00003706  00000+0  30389-3 0  9999
2 40968  64.7769  20.2459 0117348  68.5932 292.7653 14.95601826110869
SNAP-3 ALICE            
1 40970U 15058G   26129.48208678  .00052074  00000+0  80928-3 0  9999
2 40970  64.7528 236.8933 0032449  32.9824 327.3333 15.53025140110864
LMRST-SAT               
1 40971U 15058H   26129.19043076  .00002551  00000+0  23782-3 0  9997
2 40971  64.7772  36.4153 0130648  73.8902 287.6547 14.90364851107748
SNAP-3 EDDIE            
1 40972U 15058J   26129.50151381  .00056555  00000+0  84130-3 0  9999
2 40972  64.7446 227.8268 0032946  36.6570 323.6817 15.54175489113005
PROPCUBE 3              
1 40973U 15058K   26129.38812498  .00003194  00000+0  27198-3 0  9991
2 40973  64.7705  13.7335 0122836  75.3597 286.1098 14.93992528109000
BISONSAT                
1 40974U 15058L   26129.43658672  .00010221  00000+0  50777-3 0  9998
2 40974  64.7596 298.8436 0078564  64.2013 296.7189 15.15409034109744
SNAP-3 JIMI             
1 40975U 15058M   26128.97478197  .00005653  00000+0  39543-3 0  9990
2 40975  64.7663 343.7988 0104826  71.6039 289.6442 15.01896433108338
PROPCUBE 1 (FLORA)      
1 40976U 15058N   26129.24383259  .00002400  00000+0  23341-3 0  9992
2 40976  64.7754  55.9091 0129466  76.1585 285.3892 14.89000130110465
SINOD-D 3               
1 40977U 15058P   26129.07832185  .00003756  00000+0  32310-3 0  9992
2 40977  64.7738  37.9141 0117944  73.7488 287.6562 14.93717031108913
HORYU-4                 
1 41340U 16012D   26129.32452191  .00143569  00000+0  82688-3 0  9991
2 41340  30.9890 359.7252 0005887 353.9917   6.0668 15.77138808564640
RAVAN                   
1 41849U 16067B   26129.24894952  .00035735  00000+0  61053-3 0  9999
2 41849  97.9938  14.4343 0007154 129.4238 230.7646 15.51198365521659
CELTEE 1                
1 41850U 16067C   26129.55112054  .00003907  00000+0  18879-3 0  9995
2 41850  98.0724 353.4849 0001938  62.7699 297.3731 15.19302385520013
OPTICUBE 04             
1 41851U 16067D   26129.50110096  .00001210  00000+0  79810-4 0  9993
2 41851  98.0744 339.7628 0014257 246.4246 113.5484 15.09496741519331
AEROCUBE 8D             
1 41852U 16067E   26129.55124972  .00005232  00000+0  22027-3 0  9992
2 41852  98.0738 356.7904 0001872 267.3676  92.7345 15.23859766520184
AEROCUBE 8C             
1 41853U 16067F   26129.18844753  .00005921  00000+0  24706-3 0  9999
2 41853  98.0606 353.6790 0005158 179.6338 180.4902 15.24093372520121
CORVUS BC2              
1 42846U 17042X   26129.39625843  .00002982  00000+0  20813-3 0  9995
2 42846  97.4038 292.2700 0011958 241.8841 118.1179 15.06048696481221
CORVUS BC1              
1 42847U 17042Y   26129.39527538  .00003122  00000+0  21672-3 0  9999
2 42847  97.4070 293.0577 0011149 215.5186 144.5301 15.06221332481254
MAKERSAT 0              
1 43016U 17073D   26129.16765688  .00019438  00000+0  54475-3 0  9991
2 43016  97.4679  11.4219 0112296  52.5361 308.6029 15.30445615460494
