OBJECT_NAME,OBJECT_ID,EPOCH,MEAN_MOTION,ECCENTRICITY,INCLINATION,RA_OF_ASC_NODE,ARG_OF_PERICENTER,MEAN_ANOMALY,EPHEMERIS_TYPE,CLASSIFICATION_TYPE,NORAD_CAT_ID,ELEMENT_SET_NO,REV_AT_EPOCH,BSTAR,MEAN_MOTION_DOT,MEAN_MOTION_DDOT
PERSEUS-M1,2014-033AF,2026-05-09T08:45:09.040608,14.95500089,.0012955,97.9623,72.8693,68.9578,291.3026,0,U,40039,999,64483,.10975E-3,.1156E-4,0
POLYITAN-1,2014-033AJ,2026-05-09T12:42:38.283264,15.31941104,.0005366,98.0980,152.1738,282.4820,77.5819,0,U,40042,999,64767,.42212E-3,.12942E-3,0
TIGRISAT,2014-033AK,2026-05-09T08:57:35.714592,14.84997450,.0048997,97.7786,280.2898,200.4241,159.5016,0,U,40043,999,63986,.22673E-3,.192E-4,0
AEROCUBE 6A,2014-033AM,2026-05-09T09:52:44.686848,14.97675296,.0040112,97.7208,296.7927,143.5697,216.8267,0,U,40045,999,64081,.50997E-3,.6012E-4,0
AEROCUBE 6B,2014-033AN,2026-05-09T10:49:47.822880,14.99102141,.0037663,97.7179,296.5458,136.7298,223.6894,0,U,40046,999,64095,.42879E-3,.5226E-4,0
CANX-4,2014-034C,2026-05-09T09:02:39.571296,14.81192728,.0013726,98.3174,3.2570,131.8729,228.3656,0,U,40055,999,63878,.9477E-4,.681E-5,0
CANX-5,2014-034D,2026-05-09T09:01:02.868096,14.81209762,.0013718,98.3175,3.2970,132.0868,228.1512,0,U,40056,999,62959,.94571E-4,.68E-5,0
UKUBE-1,2014-037F,2026-05-09T11:38:22.490592,15.12937450,.000061,98.4248,128.7128,34.8391,325.2877,0,U,40074,999,64270,.35857E-3,.6243E-4,0
BRITE-PL2 (HEWELIUSZ),2014-049B,2026-05-09T06:32:52.473120,14.94450146,.0012858,97.9054,240.9869,235.3242,124.6766,0,U,40119,999,63563,.14672E-3,.1524E-4,0
AEROCUBE 5C,2015-058B,2026-05-09T09:52:17.545152,14.91233329,.0129721,64.7688,23.1989,78.5164,283.0482,0,U,40965,999,35987,.22682E-3,.2478E-4,0
AEROCUBE 7,2015-058C,2026-05-09T09:12:24.350688,14.95423752,.0119538,64.7639,6.3285,77.2382,284.2060,0,U,40966,999,36015,.29486E-3,.3591E-4,0
FOX-1A (AO-85),2015-058D,2026-05-09T04:16:07.572288,14.90739330,.0128848,64.7764,40.1896,71.8916,289.6180,0,U,40967,999,10775,.24403E-3,.2638E-4,0
SINOD-D 1,2015-058E,2026-05-09T10:23:36.079008,14.95601826,.0117348,64.7769,20.2459,68.5932,292.7653,0,U,40968,999,11086,.30389E-3,.3706E-4,0
SNAP-3 ALICE,2015-058G,2026-05-09T11:34:12.297792,15.53025140,.0032449,64.7528,236.8933,32.9824,327.3333,0,U,40970,999,11086,.80928E-3,.52074E-3,0
LMRST-SAT,2015-058H,2026-05-09T04:34:13.216800,14.90364851,.0130649,64.7772,36.4153,73.8902,287.6547,0,U,40971,999,10774,.23782E-3,.2551E-4,0
SNAP-3 EDDIE,2015-058J,2026-05-09T12:02:10.793184,15.54175489,.0032946,64.7446,227.8268,36.6570,323.6817,0,U,40972,999,11300,.8413E-3,.56555E-3,0
PROPCUBE 3,2015-058K,2026-05-09T09:18:53.998272,14.93992528,.0122836,64.7705,13.7335,75.3597,286.1098,0,U,40973,999,10900,.27198E-3,.3194E-4,0
BISONSAT,2015-058L,2026-05-09T10:28:41.092608,15.15409034,.0078564,64.7596,298.8436,64.2013,296.7189,0,U,40974,999,10974,.50777E-3,.10221E-3,0
SNAP-3 JIMI,2015-058M,2026-05-08T23:23:41.162208,15.01896433,.0104827,64.7663,343.7988,71.6039,289.6442,0,U,40975,999,10833,.39543E-3,.5653E-4,0
PROPCUBE 1 (FLORA),2015-058N,2026-05-09T05:51:07.134912,14.89000130,.0129467,64.7754,55.9091,76.1585,285.3892,0,U,40976,999,11046,.23341E-3,.24E-4,0
SINOD-D 3,2015-058P,2026-05-09T01:52:47.006976,14.93717031,.0117944,64.7738,37.9141,73.7488,287.6562,0,U,40977,999,10891,.3231E-3,.3756E-4,0
HORYU-4,2016-012D,2026-05-09T07:47:18.693024,15.77138808,.0005887,30.9890,359.7252,353.9917,6.0668,0,U,41340,999,56464,.82688E-3,.143569E-2,0
RAVAN,2016-067B,2026-05-09T05:58:29.237664,15.51198365,.0007155,97.9938,14.4343,129.4238,230.7646,0,U,41849,999,52165,.61053E-3,.35735E-3,0
CELTEE 1,2016-067C,2026-05-09T13:13:36.814656,15.19302385,.0001938,98.0724,353.4849,62.7699,297.3731,0,U,41850,999,52001,.18879E-3,.3907E-4,0
OPTICUBE 04,2016-067D,2026-05-09T12:01:35.122944,15.09496741,.0014257,98.0744,339.7628,246.4246,113.5484,0,U,41851,999,51933,.7981E-4,.121E-4,0
AEROCUBE 8D,2016-067E,2026-05-09T13:13:47.975808,15.23859766,.0001872,98.0738,356.7904,267.3676,92.7345,0,U,41852,999,52018,.22027E-3,.5232E-4,0
AEROCUBE 8C,2016-067F,2026-05-09T04:31:21.865728,15.24093372,.0005159,98.0606,353.6790,179.6338,180.4902,0,U,41853,999,52012,.24706E-3,.5921E-4,0
CORVUS BC2,2017-042X,2026-05-09T09:30:36.728352,15.06048696,.0011958,97.4038,292.2700,241.8841,118.1179,0,U,42846,999,48122,.20813E-3,.2982E-4,0
CORVUS BC1,2017-042Y,2026-05-09T09:29:11.792832,15.06221332,.0011149,97.4070,293.0577,215.5186,144.5301,0,U,42847,999,48125,.21672E-3,.3122E-4,0
MAKERSAT 0,2017-073D,2026-05-09T04:01:25.553568,15.30445615,.0112297,97.4679,11.4219,52.5361,308.6029,0,U,43016,999,46049,.54475E-3,.19438E-3,0
